GLOBALSTAR M057 [-]     
1 25943U 99058A   23304.76233561 -.00000037  00000+0  50511-3 0  9994
2 25943  51.9979 235.0950 0001833 226.6721 133.3976 12.24777428 94098
GLOBALSTAR M059 [-]     
1 25944U 99058B   23304.95362043 -.00000090  00000+0 -46585-4 0  9991
2 25944  52.0045  14.7282 0000421 171.8186 359.3673 11.99953873502700
GLOBALSTAR M056 [-]     
1 25945U 99058C   23304.90656552 -.00000012  00000+0  88238-3 0  9991
2 25945  51.9992  32.0826 0001423 100.7800   8.8094 12.04770631 90996
GLOBALSTAR M031 [-]     
1 25946U 99058D   23305.20879169 -.00000008  00000+0  84037-3 0  9995
2 25946  51.9974 319.1180 0001808  53.1077  29.0371 12.15997441 92529
GLOBALSTAR M039 [-]     
1 25961U 99062A   23304.90521021 -.00000066  00000+0  20931-3 0  9991
2 25961  51.9844 278.6980 0003083 103.5877 256.5333 12.62273193105167
GLOBALSTAR M034 [-]     
1 25962U 99062B   23305.22454676 -.00000080  00000+0  15435-4 0  9999
2 25962  51.9845 115.3046 0013992   4.3413 167.1039 11.79416956 68298
GLOBALSTAR M029 [-]     
1 25963U 99062C   23304.67198517 -.00000066  00000+0  24743-3 0  9992
2 25963  51.9795 264.0347 0003182  33.6745 138.3140 11.99869514 97752
GLOBALSTAR M061 [-]     
1 25964U 99062D   23304.73129516 -.00000053  00000+0  45324-3 0  9997
2 25964  51.9792 292.7491 0005870 291.8801 239.9282 11.76752582 51199
